              TDR Cartesian                         TDR Cartesian  
    -----------------------------------       --------------------------------
     X    =       -4067411.16                 X    =        -1239746.92
     Y    =       19652947.97  feet           Y    =         5990218.54  meter
     Z    =        9592283.71                 Z    =         2923728.07
     XDOT =     -17115.446953                 XDOT =       -5216.788231
     YDOT =       4531.731527  feet/sec       YDOT =        1381.271769  meter/sec
     ZDOT =     -16471.046317                 ZDOT =       -5020.374917
  
  
    The mean element set is posted at the UTC for which position is
    just north of the next ascending node relative to the above
    vector time
 
 
    TWO LINE MEAN ELEMENT SET
  
    ISS
    1 25544U 98067A   16096.81800766  .00016717  00000-0  10270-3 0  9106
    2 25544  51.6433  58.9897 0002740  22.8854 337.2421 15.54408209 33727
  
  
    Satellite: ISS
    Catalog Number: 25544
    Epoch time:      16096.81800766   =   yrday.fracday
    Element set:     910
    Inclination:       51.6433  deg
    RA of node:        58.9897  deg
    Eccentricity:     .0002740     
    Arg of perigee:    22.8854  deg
    Mean anomaly:     337.2421  deg
    Mean motion:   15.54408209  rev/day
    Decay rate:    1.67170E-04  rev/day^2
    Epoch rev:            3372
    Checksum:              317
 
 
    Coasting Arc #12 (Orbit 3386)
    ---------------------------------------
 
    Vector Time (GMT): 2016/097/18:43:00.000
    Vector Time (MET): N/A
    Weight (LBS)     : 922235.5
 
              M50 Cartesian                         M50 Keplerian  
    -----------------------------------       --------------------------------
     X    =        4742388.20                 A    =         6787908.10  meter
     Y    =        4664404.00  meter          E    =           .0011555
     Z    =       -1326400.97                 I    =           51.95842
     XDOT =      -2552.013984                 Wp   =           34.94875
     YDOT =       4248.985486  meter/sec      RA   =           53.50123  deg
     ZDOT =       5851.847286                 TA   =          310.67418
                                              MA   =          310.77455
                                              Ha   =            221.274  n.mi
                                              Hp   =            213.813
 
              M50 Cartesian                         J2K Cartesian  
    -----------------------------------       --------------------------------
     X    =       15559016.39                 X    =         4696320.35
     Y    =       15303162.74  feet           Y    =         4717178.77  meter
     Z    =       -4351709.23                 Z    =        -1303475.99
     XDOT =      -8372.749290                 XDOT =       -2627.763528
     YDOT =      13940.241097  feet/sec       YDOT =        4220.024450  meter/sec
     ZDOT =      19198.974035                 ZDOT =        5839.265551
 
              TDR Cartesian                         TDR Cartesian  
    -----------------------------------       --------------------------------
     X    =        7144089.22                 X    =         2177518.39
     Y    =      -20641745.22  feet           Y    =        -6291603.94  meter
     Z    =       -4252939.88                 Z    =        -1296296.08
     XDOT =      14732.772653                 XDOT =        4490.549105
     YDOT =       1178.506924  feet/sec       YDOT =         359.208910  meter/sec
     ZDOT =      19143.491977                 ZDOT =        5834.936355
  
  
    The mean element set is posted at the UTC for which position is
    just north of the next ascending node relative to the above
    vector time
 
 
    TWO LINE MEAN ELEMENT SET
  
    ISS
    1 25544U 98067A   16097.78238302  .00016717  00000-0  10270-3 0  9115
    2 25544  51.6419  54.1800 0002694  26.8792 333.2500 15.54371123 33870
  
  
    Satellite: ISS
    Catalog Number: 25544
    Epoch time:      16097.78238302   =   yrday.fracday
    Element set:     911
    Inclination:       51.6419  deg
    RA of node:        54.1800  deg
    Eccentricity:     .0002694     
    Arg of perigee:    26.8792  deg
    Mean anomaly:     333.2500  deg
    Mean motion:   15.54371123  rev/day
    Decay rate:    1.67170E-04  rev/day^2
    Epoch rev:            3387
    Checksum:              299
 
 
    Coasting Arc #13 (Orbit 3400)
    ---------------------------------------
 
    Vector Time (GMT): 2016/098/16:00:00.000
    Vector Time (MET): N/A
    Weight (LBS)     : 922235.5
 
              M50 Cartesian                         M50 Keplerian  
    -----------------------------------       --------------------------------
     X    =        3270082.45                 A    =         6776536.02  meter
     Y    =       -2618969.01  meter          E    =           .0016390
     Z    =       -5340234.87                 I    =           51.90535
     XDOT =       4925.577918                 Wp   =           83.16599
     YDOT =       5860.722208  meter/sec      RA   =           49.10883  deg
     ZDOT =        144.217088                 TA   =          188.19196
                                              MA   =          188.21875
                                              Ha   =            221.209  n.mi
                                              Hp   =            213.764
 
              M50 Cartesian                         J2K Cartesian  
    -----------------------------------       --------------------------------
     X    =       10728616.98                 X    =         3325066.27
     Y    =       -8592418.02  feet           Y    =        -2582094.04  meter
     Z    =      -17520455.62                 Z    =        -5324215.54
     XDOT =      16160.032541                 XDOT =        4858.975229
     YDOT =      19228.091232  feet/sec       YDOT =        5915.430918  meter/sec
     ZDOT =        473.153177                 ZDOT =         167.982073
 
              TDR Cartesian                         TDR Cartesian  
    -----------------------------------       --------------------------------
     X    =       -5607355.94                 X    =        -1709122.09
     Y    =      -12646839.69  feet           Y    =        -3854756.74  meter
     Z    =      -17450336.39                 Z    =        -5318862.53
     XDOT =      21737.480261                 XDOT =        6625.583983
     YDOT =     -10421.474323  feet/sec       YDOT =       -3176.465374  meter/sec
     ZDOT =        575.334671                 ZDOT =         175.362008
  
  
    The mean element set is posted at the UTC for which position is
    just north of the next ascending node relative to the above
    vector time
 
 
    TWO LINE MEAN ELEMENT SET
  
    ISS
    1 25544U 98067A   16098.68246115  .00016717  00000-0  10270-3 0  9127
    2 25544  51.6439  49.6929 0002633  32.7569 327.3746 15.54414083 34010
  
  
    Satellite: ISS
    Catalog Number: 25544
    Epoch time:      16098.68246115   =   yrday.fracday
    Element set:     912
    Inclination:       51.6439  deg
    RA of node:        49.6929  deg
    Eccentricity:     .0002633     
    Arg of perigee:    32.7569  deg
    Mean anomaly:     327.3746  deg
    Mean motion:   15.54414083  rev/day
    Decay rate:    1.67170E-04  rev/day^2
    Epoch rev:            3401
    Checksum:              321
 
 
    Coasting Arc #14 (Orbit 3416)
    ---------------------------------------
 
    Vector Time (GMT): 2016/099/16:00:00.000
    Vector Time (MET): N/A
    Weight (LBS)     : 922235.5
 
              M50 Cartesian                         M50 Keplerian  
    -----------------------------------       --------------------------------
     X    =       -4460644.13                 A    =         6777960.49  meter
     Y    =        1111806.92  meter          E    =           .0008769
     Z    =        4976752.31                 I    =           51.88981
     XDOT =      -3963.847582                 Wp   =           50.09553
     YDOT =      -6203.688096  meter/sec      RA   =           44.12513  deg
     ZDOT =      -2158.878000                 TA   =           60.90363
                                              MA   =           60.81585
                                              Ha   =            221.252  n.mi
                                              Hp   =            213.608
 
              M50 Cartesian                         J2K Cartesian  
    -----------------------------------       --------------------------------
     X    =      -14634659.21                 X    =        -4496920.39
     Y    =        3647660.49  feet           Y    =         1061722.74  meter
     Z    =       16327927.53                 Z    =         4954995.06
     XDOT =     -13004.749285                 XDOT =       -3883.694734
     YDOT =     -20353.307401  feet/sec       YDOT =       -6247.566551  meter/sec
     ZDOT =      -7082.933070                 ZDOT =       -2177.938305
 
              TDR Cartesian                         TDR Cartesian  
    -----------------------------------       --------------------------------
     X    =         105443.97                 X    =           32139.32
     Y    =       15183984.94  feet           Y    =         4628078.61  meter
     Z    =       16233156.74                 Z    =         4947866.17
     XDOT =     -21710.580173                 XDOT =       -6617.384837
     YDOT =       7838.626078  feet/sec       YDOT =        2389.213229  meter/sec
     ZDOT =      -7164.584901                 ZDOT =       -2183.765478
  
  
    The mean element set is posted at the UTC for which position is
    just north of the next ascending node relative to the above
    vector time
 
 
    TWO LINE MEAN ELEMENT SET
  
    ISS
    1 25544U 98067A   16099.71110994  .00016717  00000-0  10270-3 0  9138
    2 25544  51.6448  44.5635 0002577  32.8251 327.3062 15.54461141 34179
  
